COMMENT,ORIGINATOR,NORAD_CAT_ID,OBJECT_NAME,OBJECT_TYPE,CLASSIFICATION_TYPE,INTLDES,EPOCH,EPOCH_MICROSECONDS,MEAN_MOTION,ECCENTRICITY,INCLINATION,RA_OF_ASC_NODE,ARG_OF_PERICENTER,MEAN_ANOMALY,EPHEMERIS_TYPE,ELEMENT_SET_NO,REV_AT_EPOCH,BSTAR,MEAN_MOTION_DOT,MEAN_MOTION_DDOT,FILE,TLE_LINE0,TLE_LINE1,TLE_LINE2,OBJECT_ID,OBJECT_NUMBER,SEMIMAJOR_AXIS,PERIOD,APOGEE,PERIGEE,DECAYED
"GENERATED VIA SPACETRACK.ORG API","18 SPCS","55089","SPACEBEE-163","PAYLOAD","U","23001CJ","2024-05-19 03:54:52","638336","15.49333811","0.0009079","97.4166","206.448","234.51","125.5304","0","999","7664","0.0019378","0.00107445","0","4321746","0 SPACEBEE-163","1 55089U 23001CJ  24140.16310924  .00107445  00000-0  19378-2 0  9991","2 55089  97.4166 206.4480 0009079 234.5100 125.5304 15.49333811 76647","2023-001CJ","55089","6796.811","92.943","424.847","412.505","0"
"GENERATED VIA SPACETRACK.ORG API","18 SPCS","55089","SPACEBEE-163","PAYLOAD","U","23001CJ","2024-05-19 17:51:52","410240","15.49485017","0.0009137","97.4161","207.0457","233.7921","126.2485","0","999","7673","0.002269","0.00126803","0","4322067","0 SPACEBEE-163","1 55089U 23001CJ  24140.74435660  .00126803  00000-0  22690-2 0  9990","2 55089  97.4161 207.0457 0009137 233.7921 126.2485 15.49485017 76734","2023-001CJ","55089","6796.369","92.934","424.443","412.024","0"
"GENERATED VIA SPACETRACK.ORG API","18 SPCS","55089","SPACEBEE-163","PAYLOAD","U","23001CJ","2024-05-20 03:09:49","557312","15.49585713","0.0009202","97.4163","207.4437","232.3221","127.7196","0","999","7679","0.0023069","0.00129424","0","4322688","0 SPACEBEE-163","1 55089U 23001CJ  24141.13182358  .00129424  00000-0  23069-2 0  9990","2 55089  97.4163 207.4437 0009202 232.3221 127.7196 15.49585713 76794","2023-001CJ","55089","6796.074","92.928","424.193","411.685","0"
"GENERATED VIA SPACETRACK.ORG API","18 SPCS","55089","SPACEBEE-163","PAYLOAD","U","23001CJ","2024-05-21 03:57:32","125824","15.49829127","0.00093","97.4162","208.506","229.6057","130.4383","0","999","7695","0.0020622","0.00116493","0","4323275","0 SPACEBEE-163","1 55089U 23001CJ  24142.16495516  .00116493  00000-0  20622-2 0  9991","2 55089  97.4162 208.5060 0009300 229.6057 130.4383 15.49829127 76959","2023-001CJ","55089","6795.362","92.913","423.547","410.908","0"
"GENERATED VIA SPACETRACK.ORG API","18 SPCS","55089","SPACEBEE-163","PAYLOAD","U","23001CJ","2024-05-21 03:57:32","125824","15.49829127","0.00093","97.4162","208.506","229.6057","130.4383","0","999","7695","0.0020622","0.00116493","0","4323618","0 SPACEBEE-163","1 55089U 23001CJ  24142.16495516  .00116493  00000-0  20622-2 0  9991","2 55089  97.4162 208.5060 0009300 229.6057 130.4383 15.49829127 76959","2023-001CJ","55089","6795.362","92.913","423.547","410.908","0"
"GENERATED VIA SPACETRACK.ORG API","18 SPCS","55089","SPACEBEE-163","PAYLOAD","U","23001CJ","2024-05-21 17:54:16","379424","15.49953759","0.0009317","97.4159","209.1039","228.7767","131.2682","0","999","7704","0.0019015","0.00107762","0","4323884","0 SPACEBEE-163","1 55089U 23001CJ  24142.74602291  .00107762  00000-0  19015-2 0  9998","2 55089  97.4159 209.1039 0009317 228.7767 131.2682 15.49953759 77045","2023-001CJ","55089","6794.998","92.906","423.194","410.532","0"
"GENERATED VIA SPACETRACK.ORG API","18 SPCS","55089","SPACEBEE-163","PAYLOAD","U","23001CJ","2024-05-22 03:12:03","454848","15.50047853","0.0009394","97.4159","209.502","227.2023","132.8439","0","999","7710","0.0020064","0.00114184","0","4324478","0 SPACEBEE-163","1 55089U 23001CJ  24143.13337332  .00114184  00000-0  20064-2 0  9995","2 55089  97.4159 209.5020 0009394 227.2023 132.8439 15.50047853 77108","2023-001CJ","55089","6794.723","92.900","422.971","410.205","0"
"GENERATED VIA SPACETRACK.ORG API","18 SPCS","55089","SPACEBEE-163","PAYLOAD","U","23001CJ","2024-05-22 03:12:03","454848","15.50047853","0.0009394","97.4159","209.502","227.2023","132.8439","0","999","7710","0.0020064","0.00114184","0","4324498","0 SPACEBEE-163","1 55089U 23001CJ  24143.13337332  .00114184  00000-0  20064-2 0  9995","2 55089  97.4159 209.5020 0009394 227.2023 132.8439 15.50047853 77108","2023-001CJ","55089","6794.723","92.900","422.971","410.205","0"
"GENERATED VIA SPACETRACK.ORG API","18 SPCS","55089","SPACEBEE-163","PAYLOAD","U","23001CJ","2024-05-23 03:59:19","992768","15.5027098","0.0009406","97.4156","210.5651","224.3019","135.7481","0","999","7726","0.0017218","0.00098555","0","4325039","0 SPACEBEE-163","1 55089U 23001CJ  24144.16620362  .00098555  00000-0  17218-2 0  9997","2 55089  97.4156 210.5651 0009406 224.3019 135.7481 15.50270980 77269","2023-001CJ","55089","6794.071","92.887","422.327","409.546","0"
"GENERATED VIA SPACETRACK.ORG API","18 SPCS","55089","SPACEBEE-163","PAYLOAD","U","23001CJ","2024-05-23 03:59:19","992768","15.5027098","0.0009406","97.4156","210.5651","224.3019","135.7481","0","999","7726","0.0017218","0.00098555","0","4325336","0 SPACEBEE-163","1 55089U 23001CJ  24144.16620362  .00098555  00000-0  17218-2 0  9997","2 55089  97.4156 210.5651 0009406 224.3019 135.7481 15.50270980 77269","2023-001CJ","55089","6794.071","92.887","422.327","409.546","0"
"GENERATED VIA SPACETRACK.ORG API","18 SPCS","55089","SPACEBEE-163","PAYLOAD","U","23001CJ","2024-05-23 17:55:49","928160","15.50394303","0.0009401","97.4154","211.1636","224.1069","135.9433","0","999","7735","0.001765","0.00101507","0","4325574","0 SPACEBEE-163","1 55089U 23001CJ  24144.74710565  .00101507  00000-0  17650-2 0  9998","2 55089  97.4154 211.1636 0009401 224.1069 135.9433 15.50394303 77350","2023-001CJ","55089","6793.711","92.880","421.963","409.189","0"
"GENERATED VIA SPACETRACK.ORG API","18 SPCS","55089","SPACEBEE-163","PAYLOAD","U","23001CJ","2024-05-24 03:13:27","460704","15.50487275","0.0009471","97.4152","211.5619","222.5726","137.4792","0","999","7741","0.0018304","0.00105676","0","4325866","0 SPACEBEE-163","1 55089U 23001CJ  24145.13434561  .00105676  00000-0  18304-2 0  9999","2 55089  97.4152 211.5619 0009471 222.5726 137.4792 15.50487275 77415","2023-001CJ","55089","6793.439","92.874","421.738","408.870","0"
"GENERATED VIA SPACETRACK.ORG API","18 SPCS","55089","SPACEBEE-163","PAYLOAD","U","23001CJ","2024-05-24 03:13:27","460704","15.50487275","0.0009471","97.4152","211.5619","222.5726","137.4792","0","999","7741","0.0018304","0.00105676","0","4326215","0 SPACEBEE-163","1 55089U 23001CJ  24145.13434561  .00105676  00000-0  18304-2 0  9999","2 55089  97.4152 211.5619 0009471 222.5726 137.4792 15.50487275 77415","2023-001CJ","55089","6793.439","92.874","421.738","408.870","0"
"GENERATED VIA SPACETRACK.ORG API","18 SPCS","55089","SPACEBEE-163","PAYLOAD","U","23001CJ","2024-05-24 17:09:50","65056","15.50625561","0.000935","97.415","212.1602","221.3244","138.7301","0","999","7750","0.0018887","0.00109628","0","4326542","0 SPACEBEE-163","1 55089U 23001CJ  24145.71516279  .00109628  00000-0  18887-2 0  9997","2 55089  97.4150 212.1602 0009350 221.3244 138.7301 15.50625561 77502","2023-001CJ","55089","6793.035","92.866","421.252","408.549","0"
"GENERATED VIA SPACETRACK.ORG API","18 SPCS","55089","SPACEBEE-163","PAYLOAD","U","23001CJ","2024-05-24 17:09:50","65056","15.50625561","0.000935","97.415","212.1602","221.3244","138.7301","0","999","7750","0.0018887","0.00109628","0","4326555","0 SPACEBEE-163","1 55089U 23001CJ  24145.71516279  .00109628  00000-0  18887-2 0  9997","2 55089  97.4150 212.1602 0009350 221.3244 138.7301 15.50625561 77502","2023-001CJ","55089","6793.035","92.866","421.252","408.549","0"
"GENERATED VIA SPACETRACK.ORG API","18 SPCS","55089","SPACEBEE-163","PAYLOAD","U","23001CJ","2024-05-25 04:00:18","7776","15.50722085","0.0009448","97.415","212.6251","219.776","140.2799","0","999","7757","0.0015742","0.00091465","0","4327213","0 SPACEBEE-163","1 55089U 23001CJ  24146.16687509  .00091465  00000-0  15742-2 0  9998","2 55089  97.4150 212.6251 0009448 219.7760 140.2799 15.50722085 77574","2023-001CJ","55089","6792.754","92.860","421.036","408.201","0"
"GENERATED VIA SPACETRACK.ORG API","18 SPCS","55089","SPACEBEE-163","PAYLOAD","U","23001CJ","2024-05-25 17:56:33","547200","15.50829604","0.0009407","97.4147","213.2237","218.908","141.1495","0","999","7766","0.0014916","0.00086941","0","4327503","0 SPACEBEE-163","1 55089U 23001CJ  24146.74761050  .00086941  00000-0  14916-2 0  9991","2 55089  97.4147 213.2237 0009407 218.9080 141.1495 15.50829604 77660","2023-001CJ","55089","6792.440","92.854","420.694","407.915","0"
"GENERATED VIA SPACETRACK.ORG API","18 SPCS","55089","SPACEBEE-163","PAYLOAD","U","23001CJ","2024-05-26 03:14:01","974912","15.50903596","0.0009563","97.4143","213.6225","217.1502","142.9088","0","999","7772","0.0016307","0.00095413","0","4328085","0 SPACEBEE-163","1 55089U 23001CJ  24147.13474508  .00095413  00000-0  16307-2 0  9994","2 55089  97.4143 213.6225 0009563 217.1502 142.9088 15.50903596 77727","2023-001CJ","55089","6792.224","92.849","420.584","407.593","0"
"GENERATED VIA SPACETRACK.ORG API","18 SPCS","55089","SPACEBEE-163","PAYLOAD","U","23001CJ","2024-05-26 03:14:01","974912","15.50903596","0.0009563","97.4143","213.6225","217.1502","142.9088","0","999","7772","0.0016307","0.00095413","0","4328092","0 SPACEBEE-163","1 55089U 23001CJ  24147.13474508  .00095413  00000-0  16307-2 0  9994","2 55089  97.4143 213.6225 0009563 217.1502 142.9088 15.50903596 77727","2023-001CJ","55089","6792.224","92.849","420.584","407.593","0"
"GENERATED VIA SPACETRACK.ORG API","18 SPCS","55089","SPACEBEE-163","PAYLOAD","U","23001CJ","2024-05-26 17:10:11","979552","15.50997338","0.0009519","97.4142","214.221","215.7456","144.316","0","999","7781","0.0014358","0.00084158","0","4328401","0 SPACEBEE-163","1 55089U 23001CJ  24147.71541643  .00084158  00000-0  14358-2 0  9991","2 55089  97.4142 214.2210 0009519 215.7456 144.3160 15.50997338 77814","2023-001CJ","55089","6791.950","92.843","420.280","407.350","0"
